{
  "norad_id": 57230,
  "name": "STARLINK-6250",
  "history": [
    {
      "epoch": "2026-03-28T21:35:58.861248Z",
      "apogee_km": 486.05214738267296,
      "perigee_km": 485.0322046571164,
      "latitude_deg": 1.0639207390285542e-05,
      "longitude_deg": 131.89955273175434,
      "height_km": 485.2524949987448,
      "semi_major_axis_km": 6863.679176019894,
      "eccentricity": 7.43e-05,
      "inclination_deg": 43.0,
      "raan_deg": 282.2086,
      "arg_perigee_deg": 277.424,
      "mean_anomaly_deg": 82.6527,
      "mean_motion_rev_day": 15.26747786
    }
  ]
}